0 ASTRA 1H
1 25785U 99033A   13282.01147399  .00000090  00000-0  00000+0 0  3601
2 25785 001.1247 077.2471 0002261 116.9313 240.0669 01.00272131 52457
0 ASTRA 1H
1 25785U 99033A   13283.08564561  .00000086  00000-0  00000+0 0  3619
2 25785 001.1271 077.2362 0002328 119.0319 265.7374 01.00272472 52474
0 ASTRA 1H
1 25785U 99033A   13284.09836169  .00000083  00000-0  00000+0 0  3625
2 25785 001.1294 077.2276 0002372 119.6407 270.7142 01.00272792 52481
0 ASTRA 1H
1 25785U 99033A   13285.78876296  .00000079  00000-0  00000+0 0  3655
2 25785 001.1330 077.2068 0002331 118.6077 161.9800 01.00273167 52498
0 ASTRA 1H
1 25785U 99033A   13288.13918152  .00000078  00000-0  00000+0 0  3665
2 25785 001.1392 077.2142 0002665 127.6904 281.3405 01.00272060 52521
0 ASTRA 1H
1 25785U 99033A   13289.89202157  .00000080  00000-0  00000+0 0  3674
2 25785 001.1431 077.1972 0002696 129.2914 192.5124 01.00272929 52534
0 ASTRA 1H
1 25785U 99033A   13290.00010644  .00000000  00000-0  10000-3 0  3685
2 25785 001.1432 077.2062 0002703 129.2997 231.5131 01.00269502 52351
0 ASTRA 1H
1 25785U 99033A   13290.93863615  .00000081  00000-0  00000+0 0  3685
2 25785 001.1453 077.1843 0002690 128.9591 210.6767 01.00273408 52545
0 ASTRA 1H
1 25785U 99033A   13292.00000000  .00000084  00000-0  00000+0 0  3690
2 25785 001.1240 077.8740 0002725 142.4660 219.5860 01.00269446 52560
0 ASTRA 1H
1 25785U 99033A   13295.57683929  .00000090  00000-0  00000+0 0  3701
2 25785 001.1542 077.2143 0003110 134.7010 079.2277 01.00272345 52596
